NORAD_CAT_ID,OBJECT_NAME,OBJECT_TYPE,EPOCH,MEAN_MOTION,ECCENTRICITY,INCLINATION,RA_OF_ASC_NODE,ARG_OF_PERICENTER,MEAN_ANOMALY,BSTAR,MEAN_MOTION_DOT,MEAN_MOTION_DDOT,TLE_LINE0,TLE_LINE1,TLE_LINE2,SEMIMAJOR_AXIS,PERIOD,APOGEE,PERIGEE,DECAYED
52677.0,STARLINK-4028,PAYLOAD,2024-03-14 05:32:28,15.08840146,0.0001365,53.2173,160.8257,83.5386,276.5762,1.5087e-05,-4.8e-07,0.0,0 STARLINK-4028,1 52677U 22053X   24074.23088337 -.00000048  00000-0  15087-4 0  9998,2 52677  53.2173 160.8257 0001365  83.5386 276.5762 15.08840146101225,6917.88,95.438,540.689,538.801,0.0
52677.0,STARLINK-4028,PAYLOAD,2024-03-14 11:54:00,15.08842149,0.0001328,53.2177,159.6373,83.0882,277.0261,3.4489e-05,2.61e-06,0.0,0 STARLINK-4028,1 52677U 22053X   24074.49584072  .00000261  00000-0  34489-4 0  9996,2 52677  53.2177 159.6373 0001328  83.0882 277.0261 15.08842149101673,6917.874,95.437,540.658,538.82,0.0
52677.0,STARLINK-4028,PAYLOAD,2024-03-15 11:44:47,15.08840576,0.0001134,53.2183,155.1785,92.687,267.4252,1.2208e-05,-9.4e-07,0.0,0 STARLINK-4028,1 52677U 22053X   24075.48944090 -.00000094  00000-0  12208-4 0  9996,2 52677  53.2183 155.1785 0001134  92.6870 267.4252 15.08840576101413,6917.879,95.438,540.528,538.959,0.0
52677.0,STARLINK-4028,PAYLOAD,2024-03-16 11:35:33,15.08859494,0.0001932,53.2186,150.7175,143.694,216.4183,0.00014922,2.089e-05,0.0,0 STARLINK-4028,1 52677U 22053X   24076.48302402  .00002089  00000-0  14922-3 0  9991,2 52677  53.2186 150.7175 0001932 143.6940 216.4183 15.08859494101563,6917.821,95.436,541.022,538.349,0.0
52677.0,STARLINK-4028,PAYLOAD,2024-03-16 14:46:19,15.08860391,0.0001407,53.2178,150.1219,72.5135,287.6011,0.00015748,2.221e-05,0.0,0 STARLINK-4028,1 52677U 22053X   24076.61550552  .00002221  00000-0  15748-3 0  9992,2 52677  53.2178 150.1219 0001407  72.5135 287.6011 15.08860391101995,6917.818,95.436,540.656,538.71,0.0
52677.0,STARLINK-4028,PAYLOAD,2024-03-17 11:26:21,15.08831646,0.000127,53.2184,146.2459,96.0529,264.0608,-5.9463e-05,-1.234e-05,0.0,0 STARLINK-4028,1 52677U 22053X   24077.47663510 -.00001234  00000-0 -59463-4 0  9994,2 52677  53.2184 146.2459 0001270  96.0529 264.0608 15.08831646101712,6917.906,95.438,540.649,538.892,0.0
52677.0,STARLINK-4028,PAYLOAD,2024-03-17 14:37:08,15.08825789,0.0001448,53.2191,145.6564,103.689,256.4264,-0.00013504,-2.436e-05,0.0,0 STARLINK-4028,1 52677U 22053X   24077.60912194 -.00002436  00000-0 -13504-3 0  9994,2 52677  53.2191 145.6564 0001448 103.6890 256.4264 15.08825789102145,6917.924,95.438,540.791,538.787,0.0
52677.0,STARLINK-4028,PAYLOAD,2024-03-18 09:41:45,15.08819202,0.0001358,53.2178,142.0932,93.6698,266.4449,1.5249e-05,-4.5e-07,0.0,0 STARLINK-4028,1 52677U 22053X   24078.40400380 -.00000045  00000-0  15249-4 0  9994,2 52677  53.2178 142.0932 0001358  93.6698 266.4449 15.08819202102266,6917.944,95.439,540.748,538.87,0.0
52677.0,STARLINK-4028,PAYLOAD,2024-03-19 09:32:32,15.08822263,0.0001443,53.2175,137.6327,95.2884,264.8273,4.3278e-05,4.01e-06,0.0,0 STARLINK-4028,1 52677U 22053X   24079.39760351  .00000401  00000-0  43278-4 0  9998,2 52677  53.2175 137.6327 0001443  95.2884 264.8273 15.08822263102001,6917.935,95.439,540.798,538.801,0.0
52677.0,STARLINK-4028,PAYLOAD,2024-03-20 12:34:06,15.08827693,0.0001372,53.2168,132.576,90.7578,269.3571,8.0336e-05,9.9e-06,0.0,0 STARLINK-4028,1 52677U 22053X   24080.52368971  .00000990  00000-0  80336-4 0  9996,2 52677  53.2168 132.5760 0001372  90.7578 269.3571 15.08827693102585,6917.918,95.438,540.732,538.834,0.0
52677.0,STARLINK-4028,PAYLOAD,2024-03-21 12:24:53,15.0883751,0.0001381,53.2169,128.1163,90.1955,269.9195,7.0261e-05,8.3e-06,0.0,0 STARLINK-4028,1 52677U 22053X   24081.51728928  .00000830  00000-0  70261-4 0  9997,2 52677  53.2169 128.1163 0001381  90.1955 269.9195 15.08837510102326,6917.888,95.438,540.708,538.798,0.0
52677.0,STARLINK-4028,PAYLOAD,2024-03-22 12:15:40,15.08844879,0.0001353,53.2168,123.6548,91.7446,268.3701,8.6197e-05,1.084e-05,0.0,0 STARLINK-4028,1 52677U 22053X   24082.51088353  .00001084  00000-0  86197-4 0  9996,2 52677  53.2168 123.6548 0001353  91.7446 268.3701 15.08844879102886,6917.865,95.437,540.666,538.794,0.0
52677.0,STARLINK-4028,PAYLOAD,2024-03-23 12:06:28,15.08833852,0.0001345,53.2169,119.1933,95.5838,264.5308,-5.1897e-05,-1.114e-05,0.0,0 STARLINK-4028,1 52677U 22053X   24083.50449563 -.00001114  00000-0 -51897-4 0  9995,2 52677  53.2169 119.1933 0001345  95.5838 264.5308 15.08833852102625,6917.899,95.438,540.695,538.834,0.0
52677.0,STARLINK-4028,PAYLOAD,2024-03-24 11:57:14,15.08844201,0.0001403,53.2169,114.7338,92.7045,267.4108,1.2405e-05,-9e-07,0.0,0 STARLINK-4028,1 52677U 22053X   24084.49808743 -.00000090  00000-0  12405-4 0  9996,2 52677  53.2169 114.7338 0001403  92.7045 267.4108 15.08844201102775,6917.868,95.437,540.703,538.762,0.0
52677.0,STARLINK-4028,PAYLOAD,2024-03-25 05:26:29,15.08835481,0.0001354,53.217,111.4628,96.1378,263.9768,6.4266e-05,7.35e-06,0.0,0 STARLINK-4028,1 52677U 22053X   24085.22673044  .00000735  00000-0  64266-4 0  9999,2 52677  53.2170 111.4628 0001354  96.1378 263.9768 15.08835481102880,6917.894,95.438,540.696,538.823,0.0
52677.0,STARLINK-4028,PAYLOAD,2024-03-25 18:09:34,15.08839129,0.0001273,53.2169,109.0865,96.8336,263.2801,6.6966e-05,7.78e-06,0.0,0 STARLINK-4028,1 52677U 22053X   24085.75664945  .00000778  00000-0  66966-4 0  9993,2 52677  53.2169 109.0865 0001273  96.8336 263.2801 15.08839129103374,6917.883,95.438,540.629,538.867,0.0
52677.0,STARLINK-4028,PAYLOAD,2024-03-26 05:17:17,15.08826743,0.0001283,53.2169,107.003,80.7621,279.3516,-0.0001085,-2.014e-05,0.0,0 STARLINK-4028,1 52677U 22053X   24086.22034599 -.00002014  00000-0 -10850-3 0  9999,2 52677  53.2169 107.0030 0001283  80.7621 279.3516 15.08826743103038,6917.921,95.438,540.673,538.898,0.0
52677.0,STARLINK-4028,PAYLOAD,2024-03-26 10:03:27,15.08829768,0.0001304,53.2169,106.1122,86.3509,273.7633,-8.3672e-05,-1.619e-05,0.0,0 STARLINK-4028,1 52677U 22053X   24086.41906441 -.00001619  00000-0 -83672-4 0  9997,2 52677  53.2169 106.1122 0001304  86.3509 273.7633 15.08829768103477,6917.912,95.438,540.679,538.875,0.0
52677.0,STARLINK-4028,PAYLOAD,2024-03-26 18:00:22,15.08832902,0.0001318,53.217,104.6256,88.3011,271.8132,-5.6191e-05,-1.182e-05,0.0,0 STARLINK-4028,1 52677U 22053X   24086.75026307 -.00001182  00000-0 -56191-4 0  9999,2 52677  53.2170 104.6256 0001318  88.3011 271.8132 15.08832902103113,6917.902,95.438,540.679,538.855,0.0
52677.0,STARLINK-4028,PAYLOAD,2024-03-27 09:54:13,15.08835542,0.0001229,53.2167,101.6522,88.3193,271.794,4.3253e-05,4.01e-06,0.0,0 STARLINK-4028,1 52677U 22053X   24087.41266093  .00000401  00000-0  43253-4 0  9997,2 52677  53.2167 101.6522 0001229  88.3193 271.7940 15.08835542103629,6917.894,95.438,540.609,538.909,0.0
52677.0,STARLINK-4028,PAYLOAD,2024-03-27 17:51:09,15.08840258,0.0001249,53.217,100.1652,88.7221,271.3914,5.5776e-05,6e-06,0.0,0 STARLINK-4028,1 52677U 22053X   24087.74385765  .00000600  00000-0  55776-4 0  9995,2 52677  53.2170 100.1652 0001249  88.7221 271.3914 15.08840258103266,6917.88,95.438,540.609,538.881,0.0
52677.0,STARLINK-4028,PAYLOAD,2024-03-28 04:58:51,15.08831136,0.0001304,53.2173,98.0842,88.0257,272.0884,0.00011133,1.484e-05,0.0,0 STARLINK-4028,1 52677U 22053X   24088.20754328  .00001484  00000-0  11133-3 0  9991,2 52677  53.2173  98.0842 0001304  88.0257 272.0884 15.08831136103336,6917.907,95.438,540.675,538.87,0.0
52677.0,STARLINK-4028,PAYLOAD,2024-03-28 09:45:00,15.08836739,0.0001314,53.2171,97.1918,88.0245,272.0897,0.00011691,1.573e-05,0.0,0 STARLINK-4028,1 52677U 22053X   24088.40626049  .00001573  00000-0  11691-3 0  9999,2 52677  53.2171  97.1918 0001314  88.0245 272.0897 15.08836739103772,6917.89,95.438,540.664,538.846,0.0
52677.0,STARLINK-4028,PAYLOAD,2024-03-28 17:41:56,15.08839302,0.0001309,53.217,95.7051,88.2726,271.8416,0.00011935,1.612e-05,0.0,0 STARLINK-4028,1 52677U 22053X   24088.73745884  .00001612  00000-0  11935-3 0  9999,2 52677  53.2170  95.7051 0001309  88.2726 271.8416 15.08839302103417,6917.883,95.438,540.653,538.842,0.0
52677.0,STARLINK-4028,PAYLOAD,2024-03-29 08:00:24,15.08841084,0.0001404,53.2174,93.0283,90.5892,269.5261,2.3059e-05,7.9e-07,0.0,0 STARLINK-4028,1 52677U 22053X   24089.33362164  .00000079  00000-0  23059-4 0  9999,2 52677  53.2174  93.0283 0001404  90.5892 269.5261 15.08841084103912,6917.877,95.437,540.713,538.771,0.0
52677.0,STARLINK-4028,PAYLOAD,2024-03-30 04:40:25,15.08843814,0.0001408,53.2171,89.1627,90.0838,270.0316,4.5277e-05,4.33e-06,0.0,0 STARLINK-4028,1 52677U 22053X   24090.19473735  .00000433  00000-0  45277-4 0  9992,2 52677  53.2171  89.1627 0001408  90.0838 270.0316 15.08843814103636,6917.869,95.437,540.708,538.76,0.0
52677.0,STARLINK-4028,PAYLOAD,2024-03-30 06:15:48,15.0884383,0.0001421,53.2172,88.8654,89.7218,270.3937,4.4115e-05,4.14e-06,0.0,0 STARLINK-4028,1 52677U 22053X   24090.26097727  .00000414  00000-0  44115-4 0  9992,2 52677  53.2172  88.8654 0001421  89.7218 270.3937 15.08843830104052,6917.869,95.437,540.717,538.751,0.0
52677.0,STARLINK-4028,PAYLOAD,2024-03-30 17:23:30,15.0884416,0.0001405,53.2173,86.7841,88.7795,271.3358,8.203e-06,-1.57e-06,0.0,0 STARLINK-4028,1 52677U 22053X   24090.72465652 -.00000157  00000-0  82030-5 0  9993,2 52677  53.2173  86.7841 0001405  88.7795 271.3358 15.08844160104122,6917.868,95.437,540.705,538.761,0.0
52677.0,STARLINK-4028,PAYLOAD,2024-03-31 04:31:12,15.08834739,0.0001464,53.2177,84.7035,88.3514,271.7645,-1.4967e-05,-5.26e-06,0.0,0 STARLINK-4028,1 52677U 22053X   24091.18834369 -.00000526  00000-0 -14967-4 0  9993,2 52677  53.2177  84.7035 0001464  88.3514 271.7645 15.08834739103784,6917.896,95.438,540.774,538.749,0.0
52677.0,STARLINK-4028,PAYLOAD,2024-03-31 09:17:22,15.08838405,0.0001488,53.2176,83.8105,93.2706,266.8456,-3.7468e-07,-2.94e-06,0.0,0 STARLINK-4028,1 52677U 22053X   24091.38706085 -.00000294  00000-0 -37468-6 0  9993,2 52677  53.2176  83.8105 0001488  93.2706 266.8456 15.08838405104224,6917.885,95.438,540.78,538.721,0.0
